{
  "type": "FeatureCollection",
  "features": [
    {
      "type": "Feature",
      "properties": {
        "norad_id": 57400,
        "name": "TIANMU-1 08",
        "group": "weather",
        "lat": 25.4806409195949,
        "lon": 31.633678130054733,
        "alt_km": 478.5301004222965,
        "timestamp": "2025-12-11T10:53:15.526592+00:00",
        "meta_object_name": "TIANMU-1 08",
        "meta_object_id": "2023-101B",
        "meta_epoch": "2025-12-11T04:29:19.896576",
        "meta_mean_motion": 15.28018033,
        "meta_eccentricity": 0.0007553,
        "meta_inclination": 97.2867,
        "meta_ra_of_asc_node": 34.869,
        "meta_arg_of_pericenter": 88.1635,
        "meta_mean_anomaly": 272.0469,
        "meta_ephemeris_type": 0,
        "meta_classification_type": "U",
        "meta_norad_cat_id": 57400,
        "meta_element_set_no": 999,
        "meta_rev_at_epoch": 13291,
        "meta_bstar": 0.00040564,
        "meta_mean_motion_dot": 0.00011028,
        "meta_mean_motion_ddot": 0,
        "tle_line1": "1 57400U 23101B   25345.18703584  .00011028  00000+0  40564-3 0  9991",
        "tle_line2": "2 57400  97.2867  34.8690 0007553  88.1635 272.0469 15.28018033132915"
      },
      "geometry": {
        "type": "Point",
        "coordinates": [
          31.633678130054733,
          25.4806409195949
        ]
      }
    },
    {
      "type": "Feature",
      "properties": {
        "norad_id": 57401,
        "name": "TIANMU-1 09",
        "group": "weather",
        "lat": 78.8785700315784,
        "lon": -104.77568242446223,
        "alt_km": 469.73794697350513,
        "timestamp": "2025-12-11T10:53:15.526603+00:00",
        "meta_object_name": "TIANMU-1 09",
        "meta_object_id": "2023-101C",
        "meta_epoch": "2025-12-11T04:10:20.640000",
        "meta_mean_motion": 15.28045874,
        "meta_eccentricity": 0.0006798,
        "meta_inclination": 97.2823,
        "meta_ra_of_asc_node": 34.3704,
        "meta_arg_of_pericenter": 88.1123,
        "meta_mean_anomaly": 272.0895,
        "meta_ephemeris_type": 0,
        "meta_classification_type": "U",
        "meta_norad_cat_id": 57401,
        "meta_element_set_no": 999,
        "meta_rev_at_epoch": 13291,
        "meta_bstar": 0.00043878,
        "meta_mean_motion_dot": 0.00011944,
        "meta_mean_motion_ddot": 0,
        "tle_line1": "1 57401U 23101C   25345.17385000  .00011944  00000+0  43878-3 0  9998",
        "tle_line2": "2 57401  97.2823  34.3704 0006798  88.1123 272.0895 15.28045874132917"
      },
      "geometry": {
        "type": "Point",
        "coordinates": [
          -104.77568242446223,
          78.8785700315784
        ]
      }
    },
    {
      "type": "Feature",
      "properties": {
        "norad_id": 57402,
        "name": "TIANMU-1 10",
        "group": "weather",
        "lat": -82.69610124741655,
        "lon": 122.72391441033439,
        "alt_km": 494.91764013992815,
        "timestamp": "2025-12-11T10:53:15.526613+00:00",
        "meta_object_name": "TIANMU-1 10",
        "meta_object_id": "2023-101D",
        "meta_epoch": "2025-12-11T03:25:18.106752",
        "meta_mean_motion": 15.28036242,
        "meta_eccentricity": 0.0008586,
        "meta_inclination": 97.2904,
        "meta_ra_of_asc_node": 35.1879,
        "meta_arg_of_pericenter": 88.0536,
        "meta_mean_anomaly": 272.1686,
        "meta_ephemeris_type": 0,
        "meta_classification_type": "U",
        "meta_norad_cat_id": 57402,
        "meta_element_set_no": 999,
        "meta_rev_at_epoch": 13290,
        "meta_bstar": 0.00042868,
        "meta_mean_motion_dot": 0.00011669,
        "meta_mean_motion_ddot": 0,
        "tle_line1": "1 57402U 23101D   25345.14257068  .00011669  00000+0  42868-3 0  9990",
        "tle_line2": "2 57402  97.2904  35.1879 0008586  88.0536 272.1686 15.28036242132901"
      },
      "geometry": {
        "type": "Point",
        "coordinates": [
          122.72391441033439,
          -82.69610124741655
        ]
      }
    },
    {
      "type": "Feature",
      "properties": {
        "norad_id": 57490,
        "name": "FENGYUN 3F",
        "group": "weather",
        "lat": -49.31663416093531,
        "lon": 64.03839730774146,
        "alt_km": 832.9508118337881,
        "timestamp": "2025-12-11T10:53:15.526626+00:00",
        "meta_object_name": "FENGYUN 3F",
        "meta_object_id": "2023-111A",
        "meta_epoch": "2025-12-11T04:21:29.937600",
        "meta_mean_motion": 14.19892903,
        "meta_eccentricity": 6.56e-05,
        "meta_inclination": 98.7085,
        "meta_ra_of_asc_node": 53.5001,
        "meta_arg_of_pericenter": 98.8982,
        "meta_mean_anomaly": 261.2269,
        "meta_ephemeris_type": 0,
        "meta_classification_type": "U",
        "meta_norad_cat_id": 57490,
        "meta_element_set_no": 999,
        "meta_rev_at_epoch": 12218,
        "meta_bstar": 7.8532e-05,
        "meta_mean_motion_dot": 1.23e-06,
        "meta_mean_motion_ddot": 0,
        "tle_line1": "1 57490U 23111A   25345.18159650  .00000123  00000+0  78532-4 0  9991",
        "tle_line2": "2 57490  98.7085  53.5001 0000656  98.8982 261.2269 14.19892903122187"
      },
      "geometry": {
        "type": "Point",
        "coordinates": [
          64.03839730774146,
          -49.31663416093531
        ]
      }
    },
    {
      "type": "Feature",
      "properties": {
        "norad_id": 58584,
        "name": "ARKTIKA-M 2",
        "group": "weather",
        "lat": 55.530588447942364,
        "lon": -137.6065198621046,
        "alt_km": 32889.22535273131,
        "timestamp": "2025-12-11T10:53:15.526639+00:00",
        "meta_object_name": "ARKTIKA-M 2",
        "meta_object_id": "2023-198A",
        "meta_epoch": "2025-12-08T20:10:13.977120",
        "meta_mean_motion": 2.0060476,
        "meta_eccentricity": 0.68646991,
        "meta_inclination": 63.2247,
        "meta_ra_of_asc_node": 175.3152,
        "meta_arg_of_pericenter": 268.1185,
        "meta_mean_anomaly": 18.8267,
        "meta_ephemeris_type": 0,
        "meta_classification_type": "U",
        "meta_norad_cat_id": 58584,
        "meta_element_set_no": 999,
        "meta_rev_at_epoch": 1450,
        "meta_bstar": 0,
        "meta_mean_motion_dot": 1.66e-06,
        "meta_mean_motion_ddot": 0,
        "tle_line1": "1 58584U 23198A   25342.84043955  .00000166  00000+0  00000+0 0  9998",
        "tle_line2": "2 58584  63.2247 175.3152 6864699 268.1185  18.8267  2.00604760 14506"
      },
      "geometry": {
        "type": "Point",
        "coordinates": [
          -137.6065198621046,
          55.530588447942364
        ]
      }
    },
    {
      "type": "Feature",
      "properties": {
        "norad_id": 58645,
        "name": "TIANMU-1 11",
        "group": "weather",
        "lat": 72.77876758594697,
        "lon": -150.25058919984596,
        "alt_km": 489.8624379658777,
        "timestamp": "2025-12-11T10:53:15.526652+00:00",
        "meta_object_name": "TIANMU-1 11",
        "meta_object_id": "2023-205A",
        "meta_epoch": "2025-12-11T04:07:30.847584",
        "meta_mean_motion": 15.24567591,
        "meta_eccentricity": 0.0008035,
        "meta_inclination": 97.361,
        "meta_ra_of_asc_node": 4.8225,
        "meta_arg_of_pericenter": 316.9709,
        "meta_mean_anomaly": 43.0899,
        "meta_ephemeris_type": 0,
        "meta_classification_type": "U",
        "meta_norad_cat_id": 58645,
        "meta_element_set_no": 999,
        "meta_rev_at_epoch": 10885,
        "meta_bstar": 0.00037525,
        "meta_mean_motion_dot": 9.184e-05,
        "meta_mean_motion_ddot": 0,
        "tle_line1": "1 58645U 23205A   25345.17188481  .00009184  00000+0  37525-3 0  9993",
        "tle_line2": "2 58645  97.3610   4.8225 0008035 316.9709  43.0899 15.24567591108858"
      },
      "geometry": {
        "type": "Point",
        "coordinates": [
          -150.25058919984596,
          72.77876758594697
        ]
      }
    },
    {
      "type": "Feature",
      "properties": {
        "norad_id": 58646,
        "name": "TIANMU-1 12",
        "group": "weather",
        "lat": -41.367277973197034,
        "lon": 11.440975140501696,
        "alt_km": 495.258225851484,
        "timestamp": "2025-12-11T10:53:15.526662+00:00",
        "meta_object_name": "TIANMU-1 12",
        "meta_object_id": "2023-205B",
        "meta_epoch": "2025-12-11T04:46:08.669280",
        "meta_mean_motion": 15.24449979,
        "meta_eccentricity": 0.0005936,
        "meta_inclination": 97.3599,
        "meta_ra_of_asc_node": 4.6548,
        "meta_arg_of_pericenter": 298.2406,
        "meta_mean_anomaly": 61.8232,
        "meta_ephemeris_type": 0,
        "meta_classification_type": "U",
        "meta_norad_cat_id": 58646,
        "meta_element_set_no": 999,
        "meta_rev_at_epoch": 10884,
        "meta_bstar": 0.00041049,
        "meta_mean_motion_dot": 0.00010015,
        "meta_mean_motion_ddot": 0,
        "tle_line1": "1 58646U 23205B   25345.19871145  .00010015  00000+0  41049-3 0  9993",
        "tle_line2": "2 58646  97.3599   4.6548 0005936 298.2406  61.8232 15.24449979108841"
      },
      "geometry": {
        "type": "Point",
        "coordinates": [
          11.440975140501696,
          -41.367277973197034
        ]
      }
    }
  ]
}